[{"OBJECT_NAME":"LKW-1","OBJECT_ID":"2017-077A","EPOCH":"2026-03-09T23:46:54.269760","MEAN_MOTION":15.23569891,"ECCENTRICITY":0.00030108,"INCLINATION":97.1124,"RA_OF_ASC_NODE":108.4614,"ARG_OF_PERICENTER":155.1803,"MEAN_ANOMALY":204.9581,"EPHEMERIS_TYPE":0,"CLASSIFICATION_TYPE":"U","NORAD_CAT_ID":43034,"ELEMENT_SET_NO":999,"REV_AT_EPOCH":45959,"BSTAR":0.0002203455,"MEAN_MOTION_DOT":5.204e-5,"MEAN_MOTION_DDOT":0},{"OBJECT_NAME":"HAWK-6C","OBJECT_ID":"2023-011C","EPOCH":"2026-03-09T16:08:26.380320","MEAN_MOTION":15.2190256,"ECCENTRICITY":0.00024272,"INCLINATION":40.4846,"RA_OF_ASC_NODE":208.9466,"ARG_OF_PERICENTER":10.2947,"MEAN_ANOMALY":349.7911,"EPHEMERIS_TYPE":0,"CLASSIFICATION_TYPE":"U","NORAD_CAT_ID":55326,"ELEMENT_SET_NO":999,"REV_AT_EPOCH":17268,"BSTAR":0.00033931673,"MEAN_MOTION_DOT":7.702e-5,"MEAN_MOTION_DDOT":0}]
